STARLINK-36962          
1 68269U 26055H   26089.16668981 -.01184833  41997-3 -33289-2 0  9999
2 68269  53.1580 234.8215 0001027  73.5984  88.7236 15.92905059  2928
STARLINK-37028          
1 68270U 26055J   26089.16668981 -.01209715  43675-3 -33742-2 0  9997
2 68270  53.1580 234.7987 0000953  71.2350 101.9021 15.93048226  2929
STARLINK-37029          
1 68271U 26055K   26089.16668981 -.01203224  43209-3 -33732-2 0  9999
2 68271  53.1579 234.8071 0000864  69.3123  99.9625 15.92950322  2924
STARLINK-36974          
1 68272U 26055L   26089.16668981 -.01253732  46660-3 -34780-2 0  9997
2 68272  53.1578 234.7891 0000877  67.9237 109.8997 15.93159288  2923
STARLINK-37019          
1 68273U 26055M   26089.16668981 -.01301796  50027-3 -35902-2 0  9991
2 68273  53.1578 234.7814 0001055  71.4854 109.7514 15.93278958  2923
STARLINK-37129          
1 68274U 26055N   26089.16668981 -.01359718  54217-3 -37300-2 0  9998
2 68274  53.1577 234.7737 0000877  70.3607 114.7563 15.93390242  2923
STARLINK-37123          
1 68275U 26055P   26089.16668981 -.01393680  56773-3 -38029-2 0  9993
2 68275  53.1579 234.7669 0000915  68.1412 120.2800 15.93497003  2921
STARLINK-37125          
1 68276U 26055Q   26089.16668981 -.01458657  61756-3 -39635-2 0  9991
2 68276  53.1576 234.7575 0000907  71.4457 121.5346 15.93587131  2923
STARLINK-36989          
1 68277U 26055R   26089.16668981 -.01479448  63511-3 -39753-2 0  9995
2 68277  53.1576 234.7329 0000860  78.5078 126.3622 15.93802191  2922
STARLINK-36982          
1 68278U 26055S   26089.16668981 -.01474713  63090-3 -39789-2 0  9997
2 68278  53.1576 234.7412 0000891  76.3273 124.8296 15.93723700  2921
STARLINK-36934          
1 68279U 26055T   26089.16668981 -.01479162  63395-3 -40058-2 0  9990
2 68279  53.1575 234.7488 0000852  70.9098 126.4930 15.93653934  2920
STARLINK-37070          
1 68280U 26055U   26089.16668981 -.01497173  64955-3 -40086-2 0  9998
2 68280  53.1576 234.7237 0000842  70.0050 139.2894 15.93872047  2922
