CCSDS_OMM_VERS = 2.0
CREATION_DATE  = 
ORIGINATOR     = 

OBJECT_NAME    = STARLINK-36962
OBJECT_ID      = 2026-055H
CENTER_NAME    = EARTH
REF_FRAME      = TEME
TIME_SYSTEM    = UTC
MEAN_ELEMENT_THEORY = SGP/SGP4

EPOCH          = 2026-03-30T04:00:01.999584
MEAN_MOTION    = 15.92905059
ECCENTRICITY   = .0001027
INCLINATION    = 53.1580
RA_OF_ASC_NODE = 234.8215
ARG_OF_PERICENTER = 73.5984
MEAN_ANOMALY   = 88.7236

EPHEMERIS_TYPE = 0
CLASSIFICATION_TYPE = U
NORAD_CAT_ID   = 68269
ELEMENT_SET_NO = 999
REV_AT_EPOCH   = 292
BSTAR          = -.33289E-2
MEAN_MOTION_DOT = -.1184833E-1
MEAN_MOTION_DDOT = .41997E-3

CCSDS_OMM_VERS = 2.0
CREATION_DATE  = 
ORIGINATOR     = 

OBJECT_NAME    = STARLINK-37028
OBJECT_ID      = 2026-055J
CENTER_NAME    = EARTH
REF_FRAME      = TEME
TIME_SYSTEM    = UTC
MEAN_ELEMENT_THEORY = SGP/SGP4

EPOCH          = 2026-03-30T04:00:01.999584
MEAN_MOTION    = 15.93048226
ECCENTRICITY   = .0000953
INCLINATION    = 53.1580
RA_OF_ASC_NODE = 234.7987
ARG_OF_PERICENTER = 71.2350
MEAN_ANOMALY   = 101.9021

EPHEMERIS_TYPE = 0
CLASSIFICATION_TYPE = U
NORAD_CAT_ID   = 68270
ELEMENT_SET_NO = 999
REV_AT_EPOCH   = 292
BSTAR          = -.33742E-2
MEAN_MOTION_DOT = -.1209715E-1
MEAN_MOTION_DDOT = .43675E-3

CCSDS_OMM_VERS = 2.0
CREATION_DATE  = 
ORIGINATOR     = 

OBJECT_NAME    = STARLINK-37029
OBJECT_ID      = 2026-055K
CENTER_NAME    = EARTH
REF_FRAME      = TEME
TIME_SYSTEM    = UTC
MEAN_ELEMENT_THEORY = SGP/SGP4

EPOCH          = 2026-03-30T04:00:01.999584
MEAN_MOTION    = 15.92950322
ECCENTRICITY   = .0000864
INCLINATION    = 53.1579
RA_OF_ASC_NODE = 234.8071
ARG_OF_PERICENTER = 69.3123
MEAN_ANOMALY   = 99.9625

EPHEMERIS_TYPE = 0
CLASSIFICATION_TYPE = U
NORAD_CAT_ID   = 68271
ELEMENT_SET_NO = 999
REV_AT_EPOCH   = 292
BSTAR          = -.33732E-2
MEAN_MOTION_DOT = -.1203224E-1
MEAN_MOTION_DDOT = .43209E-3

CCSDS_OMM_VERS = 2.0
CREATION_DATE  = 
ORIGINATOR     = 

OBJECT_NAME    = STARLINK-36974
OBJECT_ID      = 2026-055L
CENTER_NAME    = EARTH
REF_FRAME      = TEME
TIME_SYSTEM    = UTC
MEAN_ELEMENT_THEORY = SGP/SGP4

EPOCH          = 2026-03-30T04:00:01.999584
MEAN_MOTION    = 15.93159288
ECCENTRICITY   = .0000877
INCLINATION    = 53.1578
RA_OF_ASC_NODE = 234.7891
ARG_OF_PERICENTER = 67.9237
MEAN_ANOMALY   = 109.8997

EPHEMERIS_TYPE = 0
CLASSIFICATION_TYPE = U
NORAD_CAT_ID   = 68272
ELEMENT_SET_NO = 999
REV_AT_EPOCH   = 292
BSTAR          = -.3478E-2
MEAN_MOTION_DOT = -.1253732E-1
MEAN_MOTION_DDOT = .4666E-3

CCSDS_OMM_VERS = 2.0
CREATION_DATE  = 
ORIGINATOR     = 

OBJECT_NAME    = STARLINK-37019
OBJECT_ID      = 2026-055M
CENTER_NAME    = EARTH
REF_FRAME      = TEME
TIME_SYSTEM    = UTC
MEAN_ELEMENT_THEORY = SGP/SGP4

EPOCH          = 2026-03-30T04:00:01.999584
MEAN_MOTION    = 15.93278958
ECCENTRICITY   = .0001055
INCLINATION    = 53.1578
RA_OF_ASC_NODE = 234.7814
ARG_OF_PERICENTER = 71.4854
MEAN_ANOMALY   = 109.7514

EPHEMERIS_TYPE = 0
CLASSIFICATION_TYPE = U
NORAD_CAT_ID   = 68273
ELEMENT_SET_NO = 999
REV_AT_EPOCH   = 292
BSTAR          = -.35902E-2
MEAN_MOTION_DOT = -.1301796E-1
MEAN_MOTION_DDOT = .50027E-3

CCSDS_OMM_VERS = 2.0
CREATION_DATE  = 
ORIGINATOR     = 

OBJECT_NAME    = STARLINK-37129
OBJECT_ID      = 2026-055N
CENTER_NAME    = EARTH
REF_FRAME      = TEME
TIME_SYSTEM    = UTC
MEAN_ELEMENT_THEORY = SGP/SGP4

EPOCH          = 2026-03-30T04:00:01.999584
MEAN_MOTION    = 15.93390242
ECCENTRICITY   = .0000877
INCLINATION    = 53.1577
RA_OF_ASC_NODE = 234.7737
ARG_OF_PERICENTER = 70.3607
MEAN_ANOMALY   = 114.7563

EPHEMERIS_TYPE = 0
CLASSIFICATION_TYPE = U
NORAD_CAT_ID   = 68274
ELEMENT_SET_NO = 999
REV_AT_EPOCH   = 292
BSTAR          = -.373E-2
MEAN_MOTION_DOT = -.1359718E-1
MEAN_MOTION_DDOT = .54217E-3

CCSDS_OMM_VERS = 2.0
CREATION_DATE  = 
ORIGINATOR     = 

OBJECT_NAME    = STARLINK-37123
OBJECT_ID      = 2026-055P
CENTER_NAME    = EARTH
REF_FRAME      = TEME
TIME_SYSTEM    = UTC
MEAN_ELEMENT_THEORY = SGP/SGP4

EPOCH          = 2026-03-30T04:00:01.999584
MEAN_MOTION    = 15.93497003
ECCENTRICITY   = .0000915
INCLINATION    = 53.1579
RA_OF_ASC_NODE = 234.7669
ARG_OF_PERICENTER = 68.1412
MEAN_ANOMALY   = 120.2800

EPHEMERIS_TYPE = 0
CLASSIFICATION_TYPE = U
NORAD_CAT_ID   = 68275
ELEMENT_SET_NO = 999
REV_AT_EPOCH   = 292
BSTAR          = -.38029E-2
MEAN_MOTION_DOT = -.139368E-1
MEAN_MOTION_DDOT = .56773E-3

CCSDS_OMM_VERS = 2.0
CREATION_DATE  = 
ORIGINATOR     = 

OBJECT_NAME    = STARLINK-37125
OBJECT_ID      = 2026-055Q
CENTER_NAME    = EARTH
REF_FRAME      = TEME
TIME_SYSTEM    = UTC
MEAN_ELEMENT_THEORY = SGP/SGP4

EPOCH          = 2026-03-30T04:00:01.999584
MEAN_MOTION    = 15.93587131
ECCENTRICITY   = .0000907
INCLINATION    = 53.1576
RA_OF_ASC_NODE = 234.7575
ARG_OF_PERICENTER = 71.4457
MEAN_ANOMALY   = 121.5346

EPHEMERIS_TYPE = 0
CLASSIFICATION_TYPE = U
NORAD_CAT_ID   = 68276
ELEMENT_SET_NO = 999
REV_AT_EPOCH   = 292
BSTAR          = -.39635E-2
MEAN_MOTION_DOT = -.1458657E-1
MEAN_MOTION_DDOT = .61756E-3

CCSDS_OMM_VERS = 2.0
CREATION_DATE  = 
ORIGINATOR     = 

OBJECT_NAME    = STARLINK-36989
OBJECT_ID      = 2026-055R
CENTER_NAME    = EARTH
REF_FRAME      = TEME
TIME_SYSTEM    = UTC
MEAN_ELEMENT_THEORY = SGP/SGP4

EPOCH          = 2026-03-30T04:00:01.999584
MEAN_MOTION    = 15.93802191
ECCENTRICITY   = .000086
INCLINATION    = 53.1576
RA_OF_ASC_NODE = 234.7329
ARG_OF_PERICENTER = 78.5078
MEAN_ANOMALY   = 126.3622

EPHEMERIS_TYPE = 0
CLASSIFICATION_TYPE = U
NORAD_CAT_ID   = 68277
ELEMENT_SET_NO = 999
REV_AT_EPOCH   = 292
BSTAR          = -.39753E-2
MEAN_MOTION_DOT = -.1479448E-1
MEAN_MOTION_DDOT = .63511E-3

CCSDS_OMM_VERS = 2.0
CREATION_DATE  = 
ORIGINATOR     = 

OBJECT_NAME    = STARLINK-36982
OBJECT_ID      = 2026-055S
CENTER_NAME    = EARTH
REF_FRAME      = TEME
TIME_SYSTEM    = UTC
MEAN_ELEMENT_THEORY = SGP/SGP4

EPOCH          = 2026-03-30T04:00:01.999584
MEAN_MOTION    = 15.93723700
ECCENTRICITY   = .0000891
INCLINATION    = 53.1576
RA_OF_ASC_NODE = 234.7412
ARG_OF_PERICENTER = 76.3273
MEAN_ANOMALY   = 124.8296

EPHEMERIS_TYPE = 0
CLASSIFICATION_TYPE = U
NORAD_CAT_ID   = 68278
ELEMENT_SET_NO = 999
REV_AT_EPOCH   = 292
BSTAR          = -.39789E-2
MEAN_MOTION_DOT = -.1474713E-1
MEAN_MOTION_DDOT = .6309E-3

CCSDS_OMM_VERS = 2.0
CREATION_DATE  = 
ORIGINATOR     = 

OBJECT_NAME    = STARLINK-36934
OBJECT_ID      = 2026-055T
CENTER_NAME    = EARTH
REF_FRAME      = TEME
TIME_SYSTEM    = UTC
MEAN_ELEMENT_THEORY = SGP/SGP4

EPOCH          = 2026-03-30T04:00:01.999584
MEAN_MOTION    = 15.93653934
ECCENTRICITY   = .0000852
INCLINATION    = 53.1575
RA_OF_ASC_NODE = 234.7488
ARG_OF_PERICENTER = 70.9098
MEAN_ANOMALY   = 126.4930

EPHEMERIS_TYPE = 0
CLASSIFICATION_TYPE = U
NORAD_CAT_ID   = 68279
ELEMENT_SET_NO = 999
REV_AT_EPOCH   = 292
BSTAR          = -.40058E-2
MEAN_MOTION_DOT = -.1479162E-1
MEAN_MOTION_DDOT = .63395E-3

CCSDS_OMM_VERS = 2.0
CREATION_DATE  = 
ORIGINATOR     = 

OBJECT_NAME    = STARLINK-37070
OBJECT_ID      = 2026-055U
CENTER_NAME    = EARTH
REF_FRAME      = TEME
TIME_SYSTEM    = UTC
MEAN_ELEMENT_THEORY = SGP/SGP4

EPOCH          = 2026-03-30T04:00:01.999584
MEAN_MOTION    = 15.93872047
ECCENTRICITY   = .0000842
INCLINATION    = 53.1576
RA_OF_ASC_NODE = 234.7237
ARG_OF_PERICENTER = 70.0050
MEAN_ANOMALY   = 139.2894

EPHEMERIS_TYPE = 0
CLASSIFICATION_TYPE = U
NORAD_CAT_ID   = 68280
ELEMENT_SET_NO = 999
REV_AT_EPOCH   = 292
BSTAR          = -.40086E-2
MEAN_MOTION_DOT = -.1497173E-1
MEAN_MOTION_DDOT = .64955E-3

